<?xml version="1.0" encoding="UTF-8"?><!-- ==============================================================
     BLINDADO - NO MODIFICAR SIN PERMISO EXPLICITO DEL DUENO
     Explicar antes de editar. Contenido sagrado protegido.
============================================================== -->

<gpx version="1.1" creator="MapPro"><trk><name>Mi Ruta</name><trkseg>
<trkpt lat="9.84" lon="-83.99"></trkpt>
<trkpt lat="9.84" lon="-83.99"></trkpt>
<trkpt lat="9.84" lon="-83.99"></trkpt>
<trkpt lat="9.84" lon="-83.99"></trkpt>
</trkseg></trk></gpx>